[{"OBJECT_NAME":"INMARSAT 4-F2 (SOUTHPAN/PRN 122)","OBJECT_ID":"2005-044A","EPOCH":"2026-03-05T05:58:38.637984","MEAN_MOTION":1.00271265,"ECCENTRICITY":0.00026699,"INCLINATION":4.9592,"RA_OF_ASC_NODE":43.8067,"ARG_OF_PERICENTER":320.853,"MEAN_ANOMALY":31.4801,"EPHEMERIS_TYPE":0,"CLASSIFICATION_TYPE":"U","NORAD_CAT_ID":28899,"ELEMENT_SET_NO":999,"REV_AT_EPOCH":7447,"BSTAR":0,"MEAN_MOTION_DOT":-2.67e-6,"MEAN_MOTION_DDOT":0},{"OBJECT_NAME":"GSAT-8 (GAGAN/PRN 127)","OBJECT_ID":"2011-022A","EPOCH":"2026-03-05T04:57:38.614752","MEAN_MOTION":1.00272663,"ECCENTRICITY":0.00072844,"INCLINATION":1.8623,"RA_OF_ASC_NODE":83.1475,"ARG_OF_PERICENTER":215.5493,"MEAN_ANOMALY":353.7044,"EPHEMERIS_TYPE":0,"CLASSIFICATION_TYPE":"U","NORAD_CAT_ID":37605,"ELEMENT_SET_NO":999,"REV_AT_EPOCH":5217,"BSTAR":0,"MEAN_MOTION_DOT":7.7e-7,"MEAN_MOTION_DDOT":0},{"OBJECT_NAME":"LUCH 5A (SDCM/PRN 140)","OBJECT_ID":"2011-074B","EPOCH":"2026-03-05T07:56:45.103776","MEAN_MOTION":1.0027571,"ECCENTRICITY":0.000394,"INCLINATION":8.4896,"RA_OF_ASC_NODE":75.3323,"ARG_OF_PERICENTER":246.4395,"MEAN_ANOMALY":127.5868,"EPHEMERIS_TYPE":0,"CLASSIFICATION_TYPE":"U","NORAD_CAT_ID":37951,"ELEMENT_SET_NO":999,"REV_AT_EPOCH":5201,"BSTAR":0,"MEAN_MOTION_DOT":-5.2e-7,"MEAN_MOTION_DDOT":0},{"OBJECT_NAME":"SES-5 (EGNOS/PRN 136)","OBJECT_ID":"2012-036A","EPOCH":"2026-03-05T05:27:44.391168","MEAN_MOTION":1.00272323,"ECCENTRICITY":0.0002004,"INCLINATION":0.0582,"RA_OF_ASC_NODE":313.3955,"ARG_OF_PERICENTER":26.9786,"MEAN_ANOMALY":269.4942,"EPHEMERIS_TYPE":0,"CLASSIFICATION_TYPE":"U","NORAD_CAT_ID":38652,"ELEMENT_SET_NO":999,"REV_AT_EPOCH":4341,"BSTAR":0,"MEAN_MOTION_DOT":2.5e-7,"MEAN_MOTION_DDOT":0},{"OBJECT_NAME":"GSAT-10 (GAGAN/PRN 128)","OBJECT_ID":"2012-051B","EPOCH":"2026-03-05T04:13:38.615232","MEAN_MOTION":1.0027342,"ECCENTRICITY":0.00043401,"INCLINATION":0.0717,"RA_OF_ASC_NODE":263.018,"ARG_OF_PERICENTER":176.4786,"MEAN_ANOMALY":229.7946,"EPHEMERIS_TYPE":0,"CLASSIFICATION_TYPE":"U","NORAD_CAT_ID":38779,"ELEMENT_SET_NO":999,"REV_AT_EPOCH":4905,"BSTAR":0,"MEAN_MOTION_DOT":-1.74e-6,"MEAN_MOTION_DDOT":0},{"OBJECT_NAME":"LUCH 5B (SDCM/PRN 125)","OBJECT_ID":"2012-061A","EPOCH":"2026-03-05T05:21:44.964576","MEAN_MOTION":1.00271858,"ECCENTRICITY":0.00042193,"INCLINATION":10.2605,"RA_OF_ASC_NODE":50.8976,"ARG_OF_PERICENTER":224.0115,"MEAN_ANOMALY":312.1779,"EPHEMERIS_TYPE":0,"CLASSIFICATION_TYPE":"U","NORAD_CAT_ID":38977,"ELEMENT_SET_NO":999,"REV_AT_EPOCH":4856,"BSTAR":0,"MEAN_MOTION_DOT":-1.42e-6,"MEAN_MOTION_DDOT":0},{"OBJECT_NAME":"ASTRA 5B (EGNOS/PRN 123)","OBJECT_ID":"2014-011B","EPOCH":"2026-03-05T05:33:06.377184","MEAN_MOTION":1.00271429,"ECCENTRICITY":0.0004096,"INCLINATION":0.0892,"RA_OF_ASC_NODE":299.5362,"ARG_OF_PERICENTER":27.4419,"MEAN_ANOMALY":302.7363,"EPHEMERIS_TYPE":0,"CLASSIFICATION_TYPE":"U","NORAD_CAT_ID":39617,"ELEMENT_SET_NO":999,"REV_AT_EPOCH":4362,"BSTAR":0,"MEAN_MOTION_DOT":1.28e-6,"MEAN_MOTION_DDOT":0},{"OBJECT_NAME":"LUCH 5V (SDCM/PRN 141)","OBJECT_ID":"2014-023A","EPOCH":"2026-03-05T00:45:18.971712","MEAN_MOTION":1.00271609,"ECCENTRICITY":0.00030245,"INCLINATION":4.8765,"RA_OF_ASC_NODE":70.7693,"ARG_OF_PERICENTER":280.3184,"MEAN_ANOMALY":277.7436,"EPHEMERIS_TYPE":0,"CLASSIFICATION_TYPE":"U","NORAD_CAT_ID":39727,"ELEMENT_SET_NO":999,"REV_AT_EPOCH":4331,"BSTAR":0,"MEAN_MOTION_DOT":-2.76e-6,"MEAN_MOTION_DDOT":0},{"OBJECT_NAME":"GSAT-15 (GAGAN/PRN 139)","OBJECT_ID":"2015-065A","EPOCH":"2026-03-05T00:03:59.829984","MEAN_MOTION":1.00270828,"ECCENTRICITY":9.525e-5,"INCLINATION":0.0882,"RA_OF_ASC_NODE":269.9406,"ARG_OF_PERICENTER":97.2861,"MEAN_ANOMALY":249.9859,"EPHEMERIS_TYPE":0,"CLASSIFICATION_TYPE":"U","NORAD_CAT_ID":41028,"ELEMENT_SET_NO":999,"REV_AT_EPOCH":3775,"BSTAR":0,"MEAN_MOTION_DOT":-2.67e-6,"MEAN_MOTION_DDOT":0},{"OBJECT_NAME":"EUTELSAT 117 WEST B (WAAS/PRN 131)","OBJECT_ID":"2016-038B","EPOCH":"2026-03-04T08:41:38.793120","MEAN_MOTION":1.00271881,"ECCENTRICITY":2.105e-5,"INCLINATION":0.0384,"RA_OF_ASC_NODE":342.0206,"ARG_OF_PERICENTER":243.213,"MEAN_ANOMALY":310.292,"EPHEMERIS_TYPE":0,"CLASSIFICATION_TYPE":"U","NORAD_CAT_ID":41589,"ELEMENT_SET_NO":999,"REV_AT_EPOCH":3561,"BSTAR":0,"MEAN_MOTION_DOT":-2.3e-7,"MEAN_MOTION_DDOT":0},{"OBJECT_NAME":"SES-15 (WAAS/PRN 133)","OBJECT_ID":"2017-026A","EPOCH":"2026-03-05T00:25:38.690688","MEAN_MOTION":1.0027106,"ECCENTRICITY":7.138e-5,"INCLINATION":0.0426,"RA_OF_ASC_NODE":307.9199,"ARG_OF_PERICENTER":39.5952,"MEAN_ANOMALY":52.4724,"EPHEMERIS_TYPE":0,"CLASSIFICATION_TYPE":"U","NORAD_CAT_ID":42709,"ELEMENT_SET_NO":999,"REV_AT_EPOCH":638,"BSTAR":0,"MEAN_MOTION_DOT":5.0e-7,"MEAN_MOTION_DDOT":0},{"OBJECT_NAME":"QZS-2 (QZSS/PRN 194)","OBJECT_ID":"2017-028A","EPOCH":"2026-03-04T12:29:07.175616","MEAN_MOTION":1.00261975,"ECCENTRICITY":0.07456556,"INCLINATION":39.5902,"RA_OF_ASC_NODE":244.6778,"ARG_OF_PERICENTER":270.3311,"MEAN_ANOMALY":336.1474,"EPHEMERIS_TYPE":0,"CLASSIFICATION_TYPE":"U","NORAD_CAT_ID":42738,"ELEMENT_SET_NO":999,"REV_AT_EPOCH":657,"BSTAR":0,"MEAN_MOTION_DOT":-1.76e-6,"MEAN_MOTION_DDOT":0},{"OBJECT_NAME":"QZS-3 (QZSS/PRN 199)","OBJECT_ID":"2017-048A","EPOCH":"2026-03-05T06:14:38.604192","MEAN_MOTION":1.00275882,"ECCENTRICITY":0.00022788,"INCLINATION":0.0706,"RA_OF_ASC_NODE":215.338,"ARG_OF_PERICENTER":141.4927,"MEAN_ANOMALY":26.8119,"EPHEMERIS_TYPE":0,"CLASSIFICATION_TYPE":"U","NORAD_CAT_ID":42917,"ELEMENT_SET_NO":999,"REV_AT_EPOCH":3121,"BSTAR":0,"MEAN_MOTION_DOT":-3.56e-6,"MEAN_MOTION_DDOT":0},{"OBJECT_NAME":"QZS-4 (QZSS/PRN 195)","OBJECT_ID":"2017-062A","EPOCH":"2026-03-04T11:59:33.378432","MEAN_MOTION":1.00280862,"ECCENTRICITY":0.07486483,"INCLINATION":40.1729,"RA_OF_ASC_NODE":344.8221,"ARG_OF_PERICENTER":269.8938,"MEAN_ANOMALY":227.8704,"EPHEMERIS_TYPE":0,"CLASSIFICATION_TYPE":"U","NORAD_CAT_ID":42965,"ELEMENT_SET_NO":999,"REV_AT_EPOCH":3075,"BSTAR":0,"MEAN_MOTION_DOT":-3.43e-6,"MEAN_MOTION_DDOT":0},{"OBJECT_NAME":"BEIDOU-3 G1 (PRN 130)","OBJECT_ID":"2018-085A","EPOCH":"2026-03-05T06:06:18.194400","MEAN_MOTION":1.00268333,"ECCENTRICITY":0.00013931,"INCLINATION":2.8129,"RA_OF_ASC_NODE":100.3639,"ARG_OF_PERICENTER":21.2833,"MEAN_ANOMALY":272.9442,"EPHEMERIS_TYPE":0,"CLASSIFICATION_TYPE":"U","NORAD_CAT_ID":43683,"ELEMENT_SET_NO":999,"REV_AT_EPOCH":2701,"BSTAR":0,"MEAN_MOTION_DOT":-2.86e-6,"MEAN_MOTION_DDOT":0},{"OBJECT_NAME":"EUTELSAT 5 WEST B (EGNOS/PRN 121)","OBJECT_ID":"2019-067A","EPOCH":"2026-03-05T05:24:59.654016","MEAN_MOTION":1.00272817,"ECCENTRICITY":0.00032062,"INCLINATION":0.0933,"RA_OF_ASC_NODE":311.2659,"ARG_OF_PERICENTER":42.6829,"MEAN_ANOMALY":245.2296,"EPHEMERIS_TYPE":0,"CLASSIFICATION_TYPE":"U","NORAD_CAT_ID":44624,"ELEMENT_SET_NO":999,"REV_AT_EPOCH":2339,"BSTAR":0,"MEAN_MOTION_DOT":-5.1e-7,"MEAN_MOTION_DDOT":0},{"OBJECT_NAME":"BEIDOU-3 G2 (PRN 144)","OBJECT_ID":"2020-017A","EPOCH":"2026-03-05T04:06:29.681568","MEAN_MOTION":1.00271212,"ECCENTRICITY":0.00027683,"INCLINATION":2.656,"RA_OF_ASC_NODE":45.5996,"ARG_OF_PERICENTER":306.1729,"MEAN_ANOMALY":312.7844,"EPHEMERIS_TYPE":0,"CLASSIFICATION_TYPE":"U","NORAD_CAT_ID":45344,"ELEMENT_SET_NO":999,"REV_AT_EPOCH":2221,"BSTAR":0,"MEAN_MOTION_DOT":-1.47e-6,"MEAN_MOTION_DDOT":0}]
